IRIDIUM 150             
1 43257U 18030J   25226.51550393  .00000057  00000+0  13198-4 0  9998
2 43257  86.3919  58.6617 0002199  95.6898 264.4549 14.34217738386201
IRIDIUM 143             
1 43258U 18030K   25226.49647544  .00000062  00000+0  15169-4 0  9997
2 43258  86.3924  58.7505 0002341 100.3394 259.8065 14.34217864386132
IRIDIUM 161             
1 43478U 18047C   25226.51869388  .00000180  00000+0  47515-4 0  9995
2 43478  86.4482 216.5565 0002282  83.2257 276.9204 14.43280721380903
IRIDIUM 152             
1 43479U 18047D   25226.67850896  .00000156  00000+0  48590-4 0  9994
2 43479  86.3958 216.3506 0002160  87.5392 272.6051 14.34219214378556
IRIDIUM 147             
1 43480U 18047E   25226.47553508 -.00000028  00000+0 -17145-4 0  9996
2 43480  86.3964 216.4354 0002280  85.2480 274.8976 14.34217350378529
IRIDIUM 110             
1 43481U 18047F   25226.48187712 -.00000011  00000+0 -10945-4 0  9991
2 43481  86.3967 216.5166 0002095  75.5324 284.6104 14.34217416378512
IRIDIUM 162             
1 43482U 18047G   25226.92837486  .00000095  00000+0  22228-4 0  9998
2 43482  86.4485 216.2801 0002070  82.9910 277.1526 14.43282092380956
IRIDIUM 160             
1 43569U 18061A   25226.63701993  .00000033  00000+0  47218-5 0  9990
2 43569  86.4020 184.8774 0002269  80.9081 279.2371 14.34217705369433
